GPS BIIR-2  (PRN 13)    
1 24876U 97035A   20171.43368117  .00000102  00000-0  00000-0 0  9998
2 24876  55.4579 184.0762 0039530  59.4663 300.9742  2.00565078168053
GPS BIIR-3  (PRN 11)    
1 25933U 99055A   20171.23045394 -.00000076  00000-0  00000-0 0  9995
2 25933  52.3077  29.9296 0158266 114.7216  40.3043  2.00558333151678
GPS BIIR-4  (PRN 20)    
1 26360U 00025A   20170.75662116 -.00000022  00000-0  00000-0 0  9993
2 26360  53.5312 109.1178 0051030 155.2519  55.0659  2.00565732147352
GPS BIIR-5  (PRN 28)    
1 26407U 00040A   20171.60195001 -.00000051  00000-0  00000-0 0  9993
2 26407  55.9941 302.0877 0186058 279.3121 143.9066  2.00564877146058
GPS BIIR-6  (PRN 14)    
1 26605U 00071A   20171.60794257  .00000099  00000-0  00000-0 0  9996
2 26605  55.0339 181.3683 0117308 250.8023  92.6709  2.00565360143644
GPS BIIR-8  (PRN 16)    
1 27663U 03005A   20170.08611580 -.00000061  00000-0  00000+0 0  9998
2 27663  56.0509 301.9340 0113416  35.4682 136.0088  2.00551805127377
GPS BIIR-9  (PRN 21)    
1 27704U 03010A   20169.92956620 -.00000079  00000-0  00000-0 0  9998
2 27704  54.6253  52.9785 0240974 284.2837  82.6057  2.00394076126180
GPS BIIR-10 (PRN 22)    
1 28129U 03058A   20171.12395099 -.00000017  00000-0  00000-0 0  9996
2 28129  53.3421 111.8174 0072310 294.3036  64.9104  2.00547629120883
GPS BIIR-11 (PRN 19)    
1 28190U 04009A   20171.57398196 -.00000065  00000-0  00000-0 0  9994
2 28190  56.2739   2.6719 0092155  94.3390 227.2763  2.00562321119088
GPS BIIR-13 (PRN 02)    
1 28474U 04045A   20170.58132892 -.00000074  00000-0  00000-0 0  9998
2 28474  54.9710  52.8325 0199414 267.1254 335.5388  2.00558556114505
GPS BIIRM-1 (PRN 17)    
1 28874U 05038A   20171.55567234 -.00000065  00000-0  00000-0 0  9995
2 28874  56.3765   0.0601 0134323 266.0279  62.9114  2.00559445107935
GPS BIIRM-2 (PRN 31)    
1 29486U 06042A   20170.36255830  .00000042  00000-0  00000-0 0  9999
2 29486  54.8607 238.3436 0094840   6.2787 102.6165  2.00572751100501
GPS BIIRM-3 (PRN 12)    
1 29601U 06052A   20169.16264666 -.00000066  00000-0  00000-0 0  9999
2 29601  56.0391 300.8900 0078261  65.8285 294.9785  2.00563738 99468
GPS BIIRM-4 (PRN 15)    
1 32260U 07047A   20170.46279352  .00000091  00000-0  00000-0 0  9999
2 32260  53.1909 170.7479 0121744  49.9334 311.1544  2.00559980 92916
GPS BIIRM-5 (PRN 29)    
1 32384U 07062A   20169.05291043 -.00000071  00000-0  00000+0 0  9995
2 32384  56.4729   0.8333 0013369 117.0357  76.6734  2.00576403 91626
GPS BIIRM-6 (PRN 07)    
1 32711U 08012A   20170.38324987  .00000044  00000-0  00000-0 0  9997
2 32711  54.6073 237.4461 0141338 223.8386 135.1127  2.00565092 89859
GPS BIIRM-8 (PRN 05)    
1 35752U 09043A   20170.50337659 -.00000010  00000-0  00000-0 0  9998
2 35752  54.5949 114.9960 0057825  44.6434  74.7849  2.00562632 79441
GPS BIIF-1  (PRN 25)    
1 36585U 10022A   20169.69481271 -.00000061  00000-0  00000-0 0  9996
2 36585  55.3124 296.9044 0089492  52.9590 308.3443  2.00551513 73664
GPS BIIF-2  (PRN 01)    
1 37753U 11036A   20170.31013556 -.00000073  00000-0  00000+0 0  9990
2 37753  56.1754  57.2404 0097989  44.3456 127.0272  2.00559977 65348
GPS BIIF-3  (PRN 24)    
1 38833U 12053A   20171.06245698  .00000056  00000-0  00000-0 0  9998
2 38833  53.6493 233.2633 0095600  37.1683 323.5789  2.00565997 55647
GPS BIIF-4  (PRN 27)    
1 39166U 13023A   20170.92024926 -.00000067  00000-0  00000-0 0  9992
2 39166  56.0397 356.7313 0081869  31.3756 329.1411  2.00565063 51972
GPS BIIF-5  (PRN 30)    
1 39533U 14008A   20171.42166894  .00000049  00000-0  00000-0 0  9990
2 39533  53.7653 238.6836 0047665 199.4481 160.4548  2.00568063 45809
GPS BIIF-6  (PRN 06)    
1 39741U 14026A   20170.20522979 -.00000074  00000-0  00000-0 0  9995
2 39741  56.1499  56.7721 0020605 296.4813  63.3526  2.00577382 44595
GPS BIIF-7  (PRN 09)    
1 40105U 14045A   20170.29388360  .00000099  00000-0  00000-0 0  9991
2 40105  54.5918 175.9154 0012933 105.4240 254.7564  2.00558880 42184
GPS BIIF-8  (PRN 03)    
1 40294U 14068A   20170.15901583 -.00000005  00000-0  00000-0 0  9996
2 40294  55.3449 116.8537 0027745  37.9736 322.1871  2.00579663 41289
GPS BIIF-9  (PRN 26)    
1 40534U 15013A   20169.30241744 -.00000064  00000-0  00000-0 0  9990
2 40534  54.2279 294.8759 0047030  10.2836 349.8069  2.00568277 37887
GPS BIIF-10 (PRN 08)    
1 40730U 15033A   20170.45908903 -.00000069  00000-0  00000-0 0  9990
2 40730  55.5565 355.9208 0053768 353.8812   6.0823  2.00563165 36093
GPS BIIF-11 (PRN 10)    
1 41019U 15062A   20171.00878470 -.00000006  00000-0  00000-0 0  9991
2 41019  55.3422 116.6466 0057623 211.1476 148.4761  2.00564362 33929
GPS BIIF-12 (PRN 32)    
1 41328U 16007A   20171.10180891  .00000097  00000-0  00000-0 0  9997
2 41328  54.8275 176.3696 0041977 222.9750 136.7319  2.00557340 31981
GPS BIII-1  (PRN 04)    
1 43873U 18109A   20171.25326573  .00000098  00000-0  00000-0 0  9995
2 43873  55.0081 178.6326 0009140 222.9413 139.4449  2.00563958 11213
GPS BIII-2  (PRN 18)    
1 44506U 19056A   20169.63799295 -.00000079  00000-0  00000-0 0  9995
2 44506  55.2350  58.2366 0005218 167.7218  13.1761  2.00558369  6136
